OBJECT_NAME,OBJECT_ID,EPOCH,MEAN_MOTION,ECCENTRICITY,INCLINATION,RA_OF_ASC_NODE,ARG_OF_PERICENTER,MEAN_ANOMALY,EPHEMERIS_TYPE,CLASSIFICATION_TYPE,NORAD_CAT_ID,ELEMENT_SET_NO,REV_AT_EPOCH,BSTAR,MEAN_MOTION_DOT,MEAN_MOTION_DDOT
GEOSCAN 3 (RS92S3),2025-155T,2026-07-01T22:04:09.287616,15.35897098,.0008304,97.4545,152.9731,121.0210,239.1850,0,U,64893,999,8311,.62478842E-3,.21806E-3,0
INNOSAT 3 (RS92S0),2025-155U,2026-07-01T22:57:06.093792,15.44910674,.00080949,97.4491,154.8164,119.1131,241.0929,0,U,64894,999,8324,.10049032E-2,.4742E-3,0
KNACKSAT-2,1998-067XZ,2026-07-01T19:44:13.929216,15.61262261,.00084185,51.6258,220.7932,279.6768,80.3274,0,U,67683,999,2256,.58828552E-3,.50772E-3,0
