GEOSCAN-3 (RS92S3)
1 64893U 25155T   26182.91955194  .00021806  00000-0  62479-3 0  9998
2 64893  97.4545 152.9731 0008304 121.0210 239.1850 15.35897098 83112
INNOSAT3 (RS92S0)
1 64894U 25155U   26182.95632053  .00047420  00000-0  10049-2 0  9994
2 64894  97.4491 154.8164 0008095 119.1131 241.0929 15.44910674 83240
KNACKSAT-2
1 67683U 98067XZ  26182.82238344  .00050772  00000-0  58829-3 0  9999
2 67683  51.6258 220.7932 0008418 279.6768  80.3274 15.61262261 22561
